#dP2021  4 27  0  0  0.00000000      96 __u+U ITR00 FIT  IAC
## 2155 172800.00000000   900.00000000 59331 0.0000000000000
+  116   C06C07C08C09C10C11C12C13C14C16C19C20C21C22C23C24C25
+        C26C27C28C29C30C32C33C34C35C36C37C38C39C40C41C42C43
+        C44C45C46E01E02E03E04E05E07E08E09E11E12E13E14E15E18
+        E19E21E24E25E26E27E30E31E33E36G01G02G03G04G05G06G07
+        G08G09G10G12G13G14G15G16G17G18G19G20G21G22G23G24G25
+        G26G27G28G29G30G31G32J01J02J03R01R02R03R04R05R07R08
+        R09R11R12R13R14R15R16R17R18R19R20R21R22R24  0  0  0
++         6  8  8  7  7  8  7  8  8  9  7  7  8  7  7  7  7
++         8  9  9  7  6  7  8  8  7  6  8  8  7 10  8  9  9
++         7  9  7  7  8  7  6  6  7  7  6  6  6  7  7  8  8
++         6  6  8  6  7  8  7  6  6  7  7  7  7  6  8  7  8
++         6  6  6  7  7  6  7  6  6  6  7  6  7  6  6  7  7
++         8  7  7  8  7  7  5  9  9  7  8  7  7  6  7  7  8
++         8  9  8  7  8  8  7  6  7  5  8  7  6  6  0  0  0
%c M  cc GPS ccc cccc cccc cccc cccc ccccc ccccc ccccc ccccc
%c cc cc ccc ccc cccc cccc cccc cccc ccccc ccccc ccccc ccccc
%f  0.0000000  0.000000000  0.00000000000  0.000000000000000
%f  0.0000000  0.000000000  0.00000000000  0.000000000000000
%i    0    0    0    0      0      0      0      0         0
%i    0    0    0    0      0      0      0      0         0
/* INFORMATION & ANALYSIS CENTER (IAC)      ULTRA-RAPID DATA
/* S/V CLOCKS ARE ALIGNED TO GNSS TIME                      
/* G:C1WC2W R:C1PC2P E:C1XC5X C:C2IC6I J:C1CC2S             
/* PCV:IGS14_2148 OL/AL:FES2004  NONE     YN ORB:CoN CLK:CoN
*  2021 04 27 19  0  0.00000000
PC06  -9394.887591  23939.219841  33946.941999 999999.999999
PC07 -25333.174398  28754.003907 -17892.123270 999999.999999
PC08 -12894.223167  37550.186404 -13534.798489 999999.999999
PC09   5404.308433  31521.887528  27992.142751 999999.999999
PC10 -10385.487620  30184.479380 -27545.240814 999999.999999
PC11  21214.882877  17365.087914   5165.880968 999999.999999
PC12  10769.600223  22607.981887 -12269.453273 999999.999999
PC13  -4728.276161  41760.803045   -254.931835 999999.999999
PC14  20695.865612   6915.712369  17391.814192 999999.999999
PC16  -5490.152477  25408.763358  33358.663040 999999.999999
PC19 -26126.027607    103.537768  -9804.252572 999999.999999
PC20 -13598.277921 -11643.479462 -21393.186116 999999.999999
PC21  -7789.748456  17006.837156  20739.771289 999999.999999
PC22 -23926.268576  12094.597965   7815.089216 999999.999999
PC23  15876.267672 -17419.401216 -14940.568276 999999.999999
PC24   6554.226511  21323.682549 -16760.314556 999999.999999
PC25  16232.520203   1618.163751 -22648.276348 999999.999999
PC26  -5262.254839  27307.627589  -2086.784656 999999.999999
PC27  -1863.551868 -20549.043205  18757.348946 999999.999999
PC28  14587.065856  -7373.372350  22618.015875 999999.999999
PC29 -22807.236586  -9213.657592 -13183.110507 999999.999999
PC30 -17641.583273 -21146.552391   4417.199774 999999.999999
PC32   7643.410728 -17051.744752 -20700.225425 999999.999999
PC33  26076.650943   -128.013711   9920.912611 999999.999999
PC34  18027.850327  20993.120627  -3737.194607 999999.999999
PC35 -14592.919521   7660.029041 -22522.297682 999999.999999
PC36 -16096.990800  -2427.067387  22688.245546 999999.999999
PC37   6476.817803 -27126.079529   1243.815628 999999.999999
PC38 -10731.094085  39683.879369  -9108.393950 999999.999999
PC39   -829.981187  26939.117333  32467.302376 999999.999999
PC40 -17102.532002  25604.240208 -28839.943016 999999.999999
PC41  24057.075763 -11986.324013  -7456.490878 999999.999999
PC42  12829.760728  12114.885382  21663.105057 999999.999999
PC43  22864.553510   9744.359253  12707.434496 999999.999999
PC44   2308.961684  20507.129021 -18812.566305 999999.999999
PC45 -15736.254653  17545.091881  14930.621770 999999.999999
PC46  -7115.427333 -20625.833245  17421.255858 999999.999999
PE01  -3036.750832 -19071.187425  22431.589654 999999.999999
PE02   3171.061543  18982.048940 -22489.566424 999999.999999
PE03  14465.409265  17133.972886  19319.298805 999999.999999
PE04 -28062.738260  -8694.286384  -3614.179576 999999.999999
PE05  -7817.401493  15630.640775  23897.833750 999999.999999
PE07  25306.297960  -5024.521726 -14488.407204 999999.999999
PE08  28193.306116   8349.518623   3349.701598 999999.999999
PE09 -25180.378629   5186.606367  14693.901037 999999.999999
PE11 -14271.275305   8129.809827 -24634.977941 999999.999999
PE12 -17734.079384 -14157.881396 -18993.281939 999999.999999
PE13  14367.170315  -7644.615787  24727.597058 999999.999999
PE14 -22794.776101   8343.234470 -21585.942486 999999.999999
PE15  17737.555775  14113.527878  19047.696426 999999.999999
PE18  17421.199586  -4751.561830  14990.730506 999999.999999
PE19 -12184.388982 -17396.926983 -20605.702568 999999.999999
PE21  13648.368245 -24508.598464   9448.140485 999999.999999
PE24 -23254.700505  15221.179126  10135.031630 999999.999999
PE25 -13788.023132  24491.050431  -9277.028184 999999.999999
PE26   2209.905796 -25323.521887  15164.968589 999999.999999
PE27  23084.191624 -15933.108008  -9474.386338 999999.999999
PE30  18412.035631   2953.005900 -23003.590249 999999.999999
PE31 -18886.350258  -1960.676639  22710.037543 999999.999999
PE33 -10655.665809 -27522.486315  -2161.461532 999999.999999
PE36  -2530.308284  24889.240357 -15829.064328 999999.999999
PG01  13568.166554  -7037.572127  21416.951050 999999.999999
PG02 -13326.214971 -17571.791573 -14113.529402 999999.999999
PG03  22877.230470 -12045.706908   5733.910551 999999.999999
PG04  21528.889646  -1771.446513 -15484.756484 999999.999999
PG05 -19415.223435  -1065.232849 -18328.721953 999999.999999
PG06  -6252.835304 -25265.907548  -5070.268953 999999.999999
PG07   8082.807506 -20360.432122 -14317.430883 999999.999999
PG08  25140.993297   4615.380495   7766.327327 999999.999999
PG09  12644.211611 -10755.933960 -20798.847416 999999.999999
PG10  -4649.617988  18929.114474  18034.338698 999999.999999
PG12 -23659.831205   8734.043388   7836.139564 999999.999999
PG13 -23046.652795 -13325.888878    641.514793 999999.999999
PG14   6266.306305 -19021.511663  17423.738387 999999.999999
PG15 -25516.132154  -1958.463851   7393.244933 999999.999999
PG16  16708.469612   5875.419483 -20180.196019 999999.999999
PG17  -4046.110621 -17211.114403  20245.565952 999999.999999
PG18  -5863.446573  23141.751953 -11583.449361 999999.999999
PG19 -12764.179394 -18227.152533  14296.393464 999999.999999
PG20 -21249.978416  14112.007431  -6779.967081 999999.999999
PG21  15999.179585   1528.907087  21917.759512 999999.999999
PG22  21672.186138  -5158.841065  14513.546153 999999.999999
PG23 -14771.658380  19903.456710   9460.703650 999999.999999
PG24 -15620.632717   1455.231814  21200.019899 999999.999999
PG25 -19283.279998  17689.777791  -3841.727961 999999.999999
PG26   9036.818312  12796.487708 -21498.540359 999999.999999
PG27  23326.422078  12694.522137  -3485.927742 999999.999999
PG28   2603.846071 -17696.499017  20252.980908 999999.999999
PG29 -12945.979368   9228.175474 -21332.937481 999999.999999
PG30   -411.737033 -26296.752140  -2598.375823 999999.999999
PG31   7822.536861  23839.602783  -8046.946596 999999.999999
PG32   7237.744869  17485.751751  18813.522488 999999.999999
PJ01 -31192.211890  23799.222479  20473.342142 999999.999999
PJ02 -33083.981564  25810.642717   8634.771796 999999.999999
PJ03 -22957.321899  18633.327743 -25482.982972 999999.999999
PR01  20671.236142   4830.324495  14138.086474 999999.999999
PR02  24337.622525  -4640.607325  -6144.342974 999999.999999
PR03  12002.757247 -10434.465465 -19911.493719 999999.999999
PR04  -6939.105960 -10015.047915 -22376.583165 999999.999999
PR05 -21937.862267  -4188.334838 -12287.586636 999999.999999
PR07 -11233.266131  10566.968657  20346.744633 999999.999999
PR08   7031.665843  10149.422144  22382.920349 999999.999999
PR09 -14821.017721  13002.907661  16240.617495 999999.999999
PR11  -1024.055444  20048.005050 -15736.974873 999999.999999
PR12   9791.716115   4920.956658 -23011.143508 999999.999999
PR13  14582.833597 -12495.883600 -16807.656915 999999.999999
PR14  10915.447732 -23046.729354    -78.503968 999999.999999
PR15    925.923285 -19799.831325  16072.303234 999999.999999
PR16 -10456.833214  -3883.764975  22912.547150 999999.999999
PR17    971.286465 -15156.512140  20509.057902 999999.999999
PR18 -10528.381188 -21896.516679   7683.954087 999999.999999
PR19 -15929.338891 -17991.956305  -8556.441858 999999.999999
PR20 -12482.754727  -1318.212244 -22192.413404 999999.999999
PR21   -112.371936  15899.783084 -19942.103572 999999.999999
PR22  11079.267792  22066.712946  -6624.887417 999999.999999
PR24  12565.159428    212.136705  22209.995225 999999.999999
EOF
